{
  "type": "FeatureCollection",
  "features": [
    {
      "type": "Feature",
      "properties": {
        "norad_id": 34492,
        "name": "IRIDIUM 33 DEB",
        "group": "iridium-33-debris",
        "lat": 4.520239942908068,
        "lon": -20.98344727423151,
        "alt_km": 815.8491845814069,
        "timestamp": "2025-12-02T13:52:17.646173+00:00",
        "meta_object_name": "IRIDIUM 33 DEB",
        "meta_object_id": "1997-051GH",
        "meta_epoch": "2025-12-01T11:37:20.497728",
        "meta_mean_motion": 14.25192114,
        "meta_eccentricity": 0.01904541,
        "meta_inclination": 86.4698,
        "meta_ra_of_asc_node": 339.1786,
        "meta_arg_of_pericenter": 274.674,
        "meta_mean_anomaly": 239.6935,
        "meta_ephemeris_type": 0,
        "meta_classification_type": "U",
        "meta_norad_cat_id": 34492,
        "meta_element_set_no": 999,
        "meta_rev_at_epoch": 84898,
        "meta_bstar": 0.0079818839,
        "meta_mean_motion_dot": 0.00022727,
        "meta_mean_motion_ddot": 0,
        "tle_line1": "1 34492U 97051GH  25335.48426502  .00022727  00000+0  79819-2 0  9998",
        "tle_line2": "2 34492  86.4698 339.1786 0190454 274.6740 239.6935 14.25192114848989"
      },
      "geometry": {
        "type": "Point",
        "coordinates": [
          -20.98344727423151,
          4.520239942908068
        ]
      }
    },
    {
      "type": "Feature",
      "properties": {
        "norad_id": 34497,
        "name": "IRIDIUM 33 DEB",
        "group": "iridium-33-debris",
        "lat": 9.082321705732523,
        "lon": -123.85424596481477,
        "alt_km": 855.5382278718953,
        "timestamp": "2025-12-02T13:52:17.646184+00:00",
        "meta_object_name": "IRIDIUM 33 DEB",
        "meta_object_id": "1997-051GN",
        "meta_epoch": "2025-12-01T05:14:48.727392",
        "meta_mean_motion": 14.27398963,
        "meta_eccentricity": 0.0080081,
        "meta_inclination": 86.2784,
        "meta_ra_of_asc_node": 57.3223,
        "meta_arg_of_pericenter": 16.9295,
        "meta_mean_anomaly": 12.6117,
        "meta_ephemeris_type": 0,
        "meta_classification_type": "U",
        "meta_norad_cat_id": 34497,
        "meta_element_set_no": 999,
        "meta_rev_at_epoch": 86719,
        "meta_bstar": 0.00069242,
        "meta_mean_motion_dot": 1.774e-05,
        "meta_mean_motion_ddot": 0,
        "tle_line1": "1 34497U 97051GN  25335.21861953  .00001774  00000+0  69242-3 0  9996",
        "tle_line2": "2 34497  86.2784  57.3223 0080081  16.9295  12.6117 14.27398963867196"
      },
      "geometry": {
        "type": "Point",
        "coordinates": [
          -123.85424596481477,
          9.082321705732523
        ]
      }
    },
    {
      "type": "Feature",
      "properties": {
        "norad_id": 34508,
        "name": "IRIDIUM 33 DEB",
        "group": "iridium-33-debris",
        "lat": -69.44659776899938,
        "lon": 97.20013635989632,
        "alt_km": 766.6852578702601,
        "timestamp": "2025-12-02T13:52:17.646194+00:00",
        "meta_object_name": "IRIDIUM 33 DEB",
        "meta_object_id": "1997-051GZ",
        "meta_epoch": "2025-12-01T19:49:48.097632",
        "meta_mean_motion": 14.38250778,
        "meta_eccentricity": 0.00653798,
        "meta_inclination": 86.3693,
        "meta_ra_of_asc_node": 107.2683,
        "meta_arg_of_pericenter": 208.4513,
        "meta_mean_anomaly": 151.3111,
        "meta_ephemeris_type": 0,
        "meta_classification_type": "U",
        "meta_norad_cat_id": 34508,
        "meta_element_set_no": 999,
        "meta_rev_at_epoch": 87152,
        "meta_bstar": 0.0017382861,
        "meta_mean_motion_dot": 5.435e-05,
        "meta_mean_motion_ddot": 0,
        "tle_line1": "1 34508U 97051GZ  25335.82625113  .00005435  00000+0  17383-2 0  9998",
        "tle_line2": "2 34508  86.3693 107.2683 0065379 208.4513 151.3111 14.38250778871528"
      },
      "geometry": {
        "type": "Point",
        "coordinates": [
          97.20013635989632,
          -69.44659776899938
        ]
      }
    },
    {
      "type": "Feature",
      "properties": {
        "norad_id": 34521,
        "name": "IRIDIUM 33 DEB",
        "group": "iridium-33-debris",
        "lat": -82.84344558242665,
        "lon": 4.7564002587255,
        "alt_km": 689.4841790971886,
        "timestamp": "2025-12-02T13:52:17.646204+00:00",
        "meta_object_name": "IRIDIUM 33 DEB",
        "meta_object_id": "1997-051HN",
        "meta_epoch": "2025-12-02T04:24:22.923360",
        "meta_mean_motion": 14.63207931,
        "meta_eccentricity": 0.00012454,
        "meta_inclination": 86.3815,
        "meta_ra_of_asc_node": 35.1943,
        "meta_arg_of_pericenter": 303.8096,
        "meta_mean_anomaly": 56.2997,
        "meta_ephemeris_type": 0,
        "meta_classification_type": "U",
        "meta_norad_cat_id": 34521,
        "meta_element_set_no": 999,
        "meta_rev_at_epoch": 88318,
        "meta_bstar": 0.0011053606,
        "meta_mean_motion_dot": 5.711e-05,
        "meta_mean_motion_ddot": 0,
        "tle_line1": "1 34521U 97051HN  25336.18359865  .00005711  00000+0  11054-2 0  9997",
        "tle_line2": "2 34521  86.3815  35.1943 0001245 303.8096  56.2997 14.63207931883186"
      },
      "geometry": {
        "type": "Point",
        "coordinates": [
          4.7564002587255,
          -82.84344558242665
        ]
      }
    },
    {
      "type": "Feature",
      "properties": {
        "norad_id": 34525,
        "name": "IRIDIUM 33 DEB",
        "group": "iridium-33-debris",
        "lat": 59.01807653631646,
        "lon": -134.8826309070234,
        "alt_km": 738.8617551591515,
        "timestamp": "2025-12-02T13:52:17.646214+00:00",
        "meta_object_name": "IRIDIUM 33 DEB",
        "meta_object_id": "1997-051HS",
        "meta_epoch": "2025-12-02T05:14:17.417760",
        "meta_mean_motion": 14.42862244,
        "meta_eccentricity": 0.00064222,
        "meta_inclination": 86.3736,
        "meta_ra_of_asc_node": 51.3338,
        "meta_arg_of_pericenter": 119.2317,
        "meta_mean_anomaly": 294.1675,
        "meta_ephemeris_type": 0,
        "meta_classification_type": "U",
        "meta_norad_cat_id": 34525,
        "meta_element_set_no": 999,
        "meta_rev_at_epoch": 87936,
        "meta_bstar": 0.00052041337,
        "meta_mean_motion_dot": 1.756e-05,
        "meta_mean_motion_ddot": 0,
        "tle_line1": "1 34525U 97051HS  25336.21825715  .00001756  00000+0  52041-3 0  9994",
        "tle_line2": "2 34525  86.3736  51.3338 0006422 119.2317 294.1675 14.42862244879369"
      },
      "geometry": {
        "type": "Point",
        "coordinates": [
          -134.8826309070234,
          59.01807653631646
        ]
      }
    },
    {
      "type": "Feature",
      "properties": {
        "norad_id": 34529,
        "name": "IRIDIUM 33 DEB",
        "group": "iridium-33-debris",
        "lat": 80.62006134020059,
        "lon": -162.8898474823813,
        "alt_km": 750.2922354106777,
        "timestamp": "2025-12-02T13:52:17.646224+00:00",
        "meta_object_name": "IRIDIUM 33 DEB",
        "meta_object_id": "1997-051HW",
        "meta_epoch": "2025-12-02T05:04:47.827488",
        "meta_mean_motion": 14.40602181,
        "meta_eccentricity": 0.0003559,
        "meta_inclination": 86.365,
        "meta_ra_of_asc_node": 39.8992,
        "meta_arg_of_pericenter": 215.6706,
        "meta_mean_anomaly": 144.4256,
        "meta_ephemeris_type": 0,
        "meta_classification_type": "U",
        "meta_norad_cat_id": 34529,
        "meta_element_set_no": 999,
        "meta_rev_at_epoch": 87990,
        "meta_bstar": 0.00016931279,
        "meta_mean_motion_dot": 5.59e-06,
        "meta_mean_motion_ddot": 0,
        "tle_line1": "1 34529U 97051HW  25336.21166467  .00000559  00000+0  16931-3 0  9998",
        "tle_line2": "2 34529  86.3650  39.8992 0003559 215.6706 144.4256 14.40602181879908"
      },
      "geometry": {
        "type": "Point",
        "coordinates": [
          -162.8898474823813,
          80.62006134020059
        ]
      }
    },
    {
      "type": "Feature",
      "properties": {
        "norad_id": 34538,
        "name": "IRIDIUM 33 DEB",
        "group": "iridium-33-debris",
        "lat": -42.709674108016095,
        "lon": -166.54887387081195,
        "alt_km": 775.2446723849143,
        "timestamp": "2025-12-02T13:52:17.646234+00:00",
        "meta_object_name": "IRIDIUM 33 DEB",
        "meta_object_id": "1997-051JF",
        "meta_epoch": "2025-12-02T03:08:34.535328",
        "meta_mean_motion": 14.42546376,
        "meta_eccentricity": 0.00341464,
        "meta_inclination": 86.2785,
        "meta_ra_of_asc_node": 10.2023,
        "meta_arg_of_pericenter": 3.5659,
        "meta_mean_anomaly": 59.4066,
        "meta_ephemeris_type": 0,
        "meta_classification_type": "U",
        "meta_norad_cat_id": 34538,
        "meta_element_set_no": 999,
        "meta_rev_at_epoch": 87603,
        "meta_bstar": 0.0010217292,
        "meta_mean_motion_dot": 3.431e-05,
        "meta_mean_motion_ddot": 0,
        "tle_line1": "1 34538U 97051JF  25336.13095527  .00003431  00000+0  10217-2 0  9999",
        "tle_line2": "2 34538  86.2785  10.2023 0034146   3.5659  59.4066 14.42546376876031"
      },
      "geometry": {
        "type": "Point",
        "coordinates": [
          -166.54887387081195,
          -42.709674108016095
        ]
      }
    }
  ]
}